1999 CV8,e,15.269712,132.131951,279.12464,1.29784284,0,0.35195116,41.947698,1/22/1999,2000.0,19.63,0.15
1999 CW8,e,33.572485,317.37772,261.976947,2.2237127,0,0.59685826,332.45259,1/22/1999,2000.0,18.47,0.15
1999 CF9,e,5.548585,157.656545,89.50555,1.77331424,0,0.59876097,316.414211,1/22/1999,2000.0,17.9,0.15
1999 CG9,e,5.146329,139.103358,313.365372,1.06000193,0,0.06406121,25.73791,1/22/1999,2000.0,25.17,0.15
1999 DY2,e,7.605349,352.442849,160.986677,2.03922296,0,0.4622569,349.07396,1/22/1999,2000.0,21.48,0.15
1999 DJ4,e,9.116479,20.030419,197.439131,1.83013961,0,0.47813385,327.559174,1/22/1999,2000.0,17.88,0.15
1999 DB7,e,10.851876,157.750779,29.490805,1.20983971,0,0.197357,315.234556,1/22/1999,2000.0,19.93,0.15
5025 P-L,e,3.399601,343.162596,153.745024,2.25469709,0,0.72308503,71.539603,1/22/1999,2000.0,16.9,0.15
6344 P-L,e,4.396518,183.9828,233.659202,2.37818123,0,0.60121589,160.217435,1/22/1999,2000.0,21.5,0.15
3317 T-1,e,10.925874,10.616679,353.178338,2.85617226,0,0.52633169,105.411961,1/22/1999,2000.0,11.82,0.15
